[
    {
        "OBJECT_NAME": "ARIANE 40+ R/B",
        "OBJECT_ID": "1995-021B",
        "EPOCH": "2026-05-09T20:15:15.359328",
        "MEAN_MOTION": 14.39811768,
        "ECCENTRICITY": 0.0005867,
        "INCLINATION": 98.442,
        "RA_OF_ASC_NODE": 200.47,
        "ARG_OF_PERICENTER": 327.7371,
        "MEAN_ANOMALY": 149.6473,
        "EPHEMERIS_TYPE": 0,
        "CLASSIFICATION_TYPE": "U",
        "NORAD_CAT_ID": 23561,
        "ELEMENT_SET_NO": 999,
        "REV_AT_EPOCH": 62804,
        "BSTAR": 6.7541e-05,
        "MEAN_MOTION_DOT": 1.68e-06,
        "MEAN_MOTION_DDOT": 0
    },
    {
        "OBJECT_NAME": "SL-16 R/B",
        "OBJECT_ID": "1995-058B",
        "EPOCH": "2026-05-09T19:56:30.097824",
        "MEAN_MOTION": 14.15502285,
        "ECCENTRICITY": 0.0011703,
        "INCLINATION": 71.0221,
        "RA_OF_ASC_NODE": 51.8885,
        "ARG_OF_PERICENTER": 17.0801,
        "MEAN_ANOMALY": 343.0714,
        "EPHEMERIS_TYPE": 0,
        "CLASSIFICATION_TYPE": "U",
        "NORAD_CAT_ID": 23705,
        "ELEMENT_SET_NO": 999,
        "REV_AT_EPOCH": 57650,
        "BSTAR": 7.4023e-05,
        "MEAN_MOTION_DOT": 9.7e-07,
        "MEAN_MOTION_DDOT": 0
    },
    {
        "OBJECT_NAME": "SL-16 R/B",
        "OBJECT_ID": "1996-051B",
        "EPOCH": "2026-05-09T20:37:32.285280",
        "MEAN_MOTION": 14.12432416,
        "ECCENTRICITY": 0.0012788,
        "INCLINATION": 70.7629,
        "RA_OF_ASC_NODE": 45.7672,
        "ARG_OF_PERICENTER": 40.2732,
        "MEAN_ANOMALY": 319.9332,
        "EPHEMERIS_TYPE": 0,
        "CLASSIFICATION_TYPE": "U",
        "NORAD_CAT_ID": 24298,
        "ELEMENT_SET_NO": 999,
        "REV_AT_EPOCH": 53028,
        "BSTAR": 8.4419e-05,
        "MEAN_MOTION_DOT": 1.07e-06,
        "MEAN_MOTION_DDOT": 0
    },
    {
        "OBJECT_NAME": "ORBVIEW 2 (SEASTAR)",
        "OBJECT_ID": "1997-037A",
        "EPOCH": "2026-05-09T16:26:33.903168",
        "MEAN_MOTION": 14.35533248,
        "ECCENTRICITY": 0.0001408,
        "INCLINATION": 98.8658,
        "RA_OF_ASC_NODE": 295.6439,
        "ARG_OF_PERICENTER": 215.0084,
        "MEAN_ANOMALY": 145.1008,
        "EPHEMERIS_TYPE": 0,
        "CLASSIFICATION_TYPE": "U",
        "NORAD_CAT_ID": 24883,
        "ELEMENT_SET_NO": 999,
        "REV_AT_EPOCH": 51722,
        "BSTAR": 8.045e-05,
        "MEAN_MOTION_DOT": 1.85e-06,
        "MEAN_MOTION_DDOT": 0
    },
    {
        "OBJECT_NAME": "SL-16 R/B",
        "OBJECT_ID": "1998-043G",
        "EPOCH": "2026-05-09T20:14:48.308352",
        "MEAN_MOTION": 14.26062386,
        "ECCENTRICITY": 0.0009528,
        "INCLINATION": 98.8341,
        "RA_OF_ASC_NODE": 83.6788,
        "ARG_OF_PERICENTER": 191.2096,
        "MEAN_ANOMALY": 168.8873,
        "EPHEMERIS_TYPE": 0,
        "CLASSIFICATION_TYPE": "U",
        "NORAD_CAT_ID": 25400,
        "ELEMENT_SET_NO": 999,
        "REV_AT_EPOCH": 44770,
        "BSTAR": 3.1224e-05,
        "MEAN_MOTION_DOT": 2.9e-07,
        "MEAN_MOTION_DDOT": 0
    },
    {
        "OBJECT_NAME": "SL-16 R/B",
        "OBJECT_ID": "1998-045B",
        "EPOCH": "2026-05-09T19:29:00.745152",
        "MEAN_MOTION": 14.16201101,
        "ECCENTRICITY": 0.0009552,
        "INCLINATION": 71.0125,
        "RA_OF_ASC_NODE": 53.0336,
        "ARG_OF_PERICENTER": 286.9928,
        "MEAN_ANOMALY": 73.0148,
        "EPHEMERIS_TYPE": 0,
        "CLASSIFICATION_TYPE": "U",
        "NORAD_CAT_ID": 25407,
        "ELEMENT_SET_NO": 999,
        "REV_AT_EPOCH": 43575,
        "BSTAR": 0.00011868,
        "MEAN_MOTION_DOT": 1.87e-06,
        "MEAN_MOTION_DDOT": 0
    },
    {
        "OBJECT_NAME": "ISS (ZARYA)",
        "OBJECT_ID": "1998-067A",
        "EPOCH": "2026-05-09T19:29:24.583776",
        "MEAN_MOTION": 15.49164784,
        "ECCENTRICITY": 0.0007453,
        "INCLINATION": 51.631,
        "RA_OF_ASC_NODE": 130.0607,
        "ARG_OF_PERICENTER": 41.4864,
        "MEAN_ANOMALY": 318.6689,
        "EPHEMERIS_TYPE": 0,
        "CLASSIFICATION_TYPE": "U",
        "NORAD_CAT_ID": 25544,
        "ELEMENT_SET_NO": 999,
        "REV_AT_EPOCH": 56580,
        "BSTAR": 0.00012821,
        "MEAN_MOTION_DOT": 6.662e-05,
        "MEAN_MOTION_DDOT": 0
    },
    {
        "OBJECT_NAME": "CZ-4B R/B",
        "OBJECT_ID": "1999-025C",
        "EPOCH": "2026-05-09T20:27:46.260000",
        "MEAN_MOTION": 14.1827663,
        "ECCENTRICITY": 0.0037403,
        "INCLINATION": 98.6516,
        "RA_OF_ASC_NODE": 172.6499,
        "ARG_OF_PERICENTER": 167.2458,
        "MEAN_ANOMALY": 5.8961,
        "EPHEMERIS_TYPE": 0,
        "CLASSIFICATION_TYPE": "U",
        "NORAD_CAT_ID": 25732,
        "ELEMENT_SET_NO": 999,
        "REV_AT_EPOCH": 39683,
        "BSTAR": 2.7246e-05,
        "MEAN_MOTION_DOT": 1.4e-07,
        "MEAN_MOTION_DDOT": 0
    },
    {
        "OBJECT_NAME": "OKEAN-O",
        "OBJECT_ID": "1999-039A",
        "EPOCH": "2026-05-09T16:29:09.110400",
        "MEAN_MOTION": 14.80420343,
        "ECCENTRICITY": 0.0001852,
        "INCLINATION": 97.934,
        "RA_OF_ASC_NODE": 188.9223,
        "ARG_OF_PERICENTER": 105.0789,
        "MEAN_ANOMALY": 255.0628,
        "EPHEMERIS_TYPE": 0,
        "CLASSIFICATION_TYPE": "U",
        "NORAD_CAT_ID": 25860,
        "ELEMENT_SET_NO": 999,
        "REV_AT_EPOCH": 44341,
        "BSTAR": 5.9656e-05,
        "MEAN_MOTION_DOT": 4.04e-06,
        "MEAN_MOTION_DDOT": 0
    },
    {
        "OBJECT_NAME": "SL-16 R/B",
        "OBJECT_ID": "1999-039B",
        "EPOCH": "2026-05-09T17:52:18.503040",
        "MEAN_MOTION": 14.81806097,
        "ECCENTRICITY": 0.0015979,
        "INCLINATION": 97.9862,
        "RA_OF_ASC_NODE": 188.7128,
        "ARG_OF_PERICENTER": 62.2083,
        "MEAN_ANOMALY": 298.0747,
        "EPHEMERIS_TYPE": 0,
        "CLASSIFICATION_TYPE": "U",
        "NORAD_CAT_ID": 25861,
        "ELEMENT_SET_NO": 999,
        "REV_AT_EPOCH": 44590,
        "BSTAR": 5.0898e-05,
        "MEAN_MOTION_DOT": 3.49e-06,
        "MEAN_MOTION_DDOT": 0
    },
    {
        "OBJECT_NAME": "DELTA 2 R/B",
        "OBJECT_ID": "1999-041E",
        "EPOCH": "2026-05-09T02:31:46.837344",
        "MEAN_MOTION": 14.11949377,
        "ECCENTRICITY": 0.0502138,
        "INCLINATION": 51.7626,
        "RA_OF_ASC_NODE": 59.9169,
        "ARG_OF_PERICENTER": 166.5897,
        "MEAN_ANOMALY": 194.8965,
        "EPHEMERIS_TYPE": 0,
        "CLASSIFICATION_TYPE": "U",
        "NORAD_CAT_ID": 25876,
        "ELEMENT_SET_NO": 999,
        "REV_AT_EPOCH": 37156,
        "BSTAR": 0.00011497,
        "MEAN_MOTION_DOT": 4.73e-06,
        "MEAN_MOTION_DDOT": 0
    },
    {
        "OBJECT_NAME": "HELIOS 1B",
        "OBJECT_ID": "1999-064A",
        "EPOCH": "2026-05-09T17:06:49.239360",
        "MEAN_MOTION": 14.87902976,
        "ECCENTRICITY": 0.0001035,
        "INCLINATION": 98.1642,
        "RA_OF_ASC_NODE": 33.7371,
        "ARG_OF_PERICENTER": 134.2141,
        "MEAN_ANOMALY": 225.916,
        "EPHEMERIS_TYPE": 0,
        "CLASSIFICATION_TYPE": "U",
        "NORAD_CAT_ID": 25977,
        "ELEMENT_SET_NO": 999,
        "REV_AT_EPOCH": 69433,
        "BSTAR": 0.00011415,
        "MEAN_MOTION_DOT": 9.87e-06,
        "MEAN_MOTION_DDOT": 0
    },
    {
        "OBJECT_NAME": "TERRA",
        "OBJECT_ID": "1999-068A",
        "EPOCH": "2026-05-09T19:36:53.773056",
        "MEAN_MOTION": 14.61072086,
        "ECCENTRICITY": 0.0002367,
        "INCLINATION": 97.9484,
        "RA_OF_ASC_NODE": 180.8794,
        "ARG_OF_PERICENTER": 26.3703,
        "MEAN_ANOMALY": 105.0428,
        "EPHEMERIS_TYPE": 0,
        "CLASSIFICATION_TYPE": "U",
        "NORAD_CAT_ID": 25994,
        "ELEMENT_SET_NO": 999,
        "REV_AT_EPOCH": 40400,
        "BSTAR": 6.1867e-05,
        "MEAN_MOTION_DOT": 2.6e-06,
        "MEAN_MOTION_DDOT": 0
    }
]