ARIANE 40+ R/B          
1 23561U 95021B   26129.84392777  .00000168  00000+0  67541-4 0  9992
2 23561  98.4420 200.4700 0005867 327.7371 149.6473 14.39811768628047
SL-16 R/B               
1 23705U 95058B   26129.83090391  .00000097  00000+0  74023-4 0  9992
2 23705  71.0221  51.8885 0011703  17.0801 343.0714 14.15502285576504
SL-16 R/B               
1 24298U 96051B   26129.85940145  .00000107  00000+0  84419-4 0  9999
2 24298  70.7629  45.7672 0012788  40.2732 319.9332 14.12432416530289
ORBVIEW 2 (SEASTAR)     
1 24883U 97037A   26129.68511462  .00000185  00000+0  80450-4 0  9998
2 24883  98.8658 295.6439 0001408 215.0084 145.1008 14.35533248517226
SL-16 R/B               
1 25400U 98043G   26129.84361468  .00000029  00000+0  31224-4 0  9991
2 25400  98.8341  83.6788 0009528 191.2096 168.8873 14.26062386447709
SL-16 R/B               
1 25407U 98045B   26129.81181418  .00000187  00000+0  11868-3 0  9998
2 25407  71.0125  53.0336 0009552 286.9928  73.0148 14.16201101435755
ISS (ZARYA)             
1 25544U 98067A   26129.81209009  .00006662  00000+0  12821-3 0  9995
2 25544  51.6310 130.0607 0007453  41.4864 318.6689 15.49164784565805
CZ-4B R/B               
1 25732U 99025C   26129.85261875  .00000014  00000+0  27246-4 0  9995
2 25732  98.6516 172.6499 0037403 167.2458   5.8961 14.18276630396830
OKEAN-O                 
1 25860U 99039A   26129.68691100  .00000404  00000+0  59656-4 0  9994
2 25860  97.9340 188.9223 0001852 105.0789 255.0628 14.80420343443417
SL-16 R/B               
1 25861U 99039B   26129.74465860  .00000349  00000+0  50898-4 0  9991
2 25861  97.9862 188.7128 0015979  62.2083 298.0747 14.81806097445905
DELTA 2 R/B             
1 25876U 99041E   26129.10540321  .00000473  00000+0  11497-3 0  9995
2 25876  51.7626  59.9169 0502138 166.5897 194.8965 14.11949377371567
HELIOS 1B               
1 25977U 99064A   26129.71306990  .00000987  00000+0  11415-3 0  9991
2 25977  98.1642  33.7371 0001035 134.2141 225.9160 14.87902976694334
TERRA                   
1 25994U 99068A   26129.81728904  .00000260  00000+0  61867-4 0  9999
2 25994  97.9484 180.8794 0002367  26.3703 105.0428 14.61072086404001
